{
    "links": {
        "self": "http://www.neowsapp.com/rest/v1/neo/3355873?api_key=iIulBulltgU6a56xZRHN4H3l9WmuAYTsLGpBGhQ2"
    },
    "id": "3355873",
    "neo_reference_id": "3355873",
    "name": "(2006 VB)",
    "designation": "2006 VB",
    "nasa_jpl_url": "http://ssd.jpl.nasa.gov/sbdb.cgi?sstr=3355873",
    "absolute_magnitude_h": 25.1,
    "estimated_diameter": {
        "kilometers": {
            "estimated_diameter_min": 0.0253837029,
            "estimated_diameter_max": 0.0567596853
        },
        "meters": {
            "estimated_diameter_min": 25.3837029364,
            "estimated_diameter_max": 56.7596852866
        },
        "miles": {
            "estimated_diameter_min": 0.0157726969,
            "estimated_diameter_max": 0.0352688224
        },
        "feet": {
            "estimated_diameter_min": 83.279867942,
            "estimated_diameter_max": 186.2194458756
        }
    },
    "is_potentially_hazardous_asteroid": false,
    "close_approach_data": [
        {
            "close_approach_date": "1931-11-22",
            "close_approach_date_full": "1931-Nov-22 01:11",
            "epoch_date_close_approach": -1202683740000,
            "relative_velocity": {
                "kilometers_per_second": "21.0077866256",
                "kilometers_per_hour": "75628.0318522432",
                "miles_per_hour": "46992.3179028563"
            },
            "miss_distance": {
                "astronomical": "0.4611522494",
                "lunar": "179.3882250166",
                "kilometers": "68987394.255948778",
                "miles": "42866779.0316900164"
            },
            "orbiting_body": "Earth"
        },
        {
            "close_approach_date": "2006-10-22",
            "close_approach_date_full": "2006-Oct-22 02:09",
            "epoch_date_close_approach": 1161482940000,
            "relative_velocity": {
                "kilometers_per_second": "8.5990114572",
                "kilometers_per_hour": "30956.4412460672",
                "miles_per_hour": "19235.1287287021"
            },
            "miss_distance": {
                "astronomical": "0.0395126213",
                "lunar": "15.3704096857",
                "kilometers": "5911003.984596631",
                "miles": "3672927.5601142678"
            },
            "orbiting_body": "Earth"
        },
        {
            "close_approach_date": "2056-11-14",
            "close_approach_date_full": "2056-Nov-14 02:55",
            "epoch_date_close_approach": 2741396100000,
            "relative_velocity": {
                "kilometers_per_second": "16.4627622575",
                "kilometers_per_hour": "59265.9441269978",
                "miles_per_hour": "36825.5528938004"
            },
            "miss_distance": {
                "astronomical": "0.3030956659",
                "lunar": "117.9042140351",
                "kilometers": "45342466.024871633",
                "miles": "28174501.9188412154"
            },
            "orbiting_body": "Earth"
        }
    ],
    "orbital_data": {
        "orbit_id": "8",
        "orbit_determination_date": "2017-04-06 09:07:42",
        "first_observation_date": "2006-11-01",
        "last_observation_date": "2006-11-09",
        "data_arc_in_days": 8,
        "observations_used": 20,
        "orbit_uncertainty": "8",
        "minimum_orbit_intersection": ".0381959",
        "jupiter_tisserand_invariant": "4.041",
        "epoch_osculation": "2454041.5",
        "eccentricity": ".4247920675726925",
        "semi_major_axis": "1.729390900403134",
        "inclination": "8.694600362571494",
        "ascending_node_longitude": "37.00774454835889",
        "orbital_period": "830.688467413763",
        "perihelion_distance": ".9947593641794864",
        "perihelion_argument": "325.0601178158359",
        "aphelion_distance": "2.464022436626781",
        "perihelion_time": "2454008.415918328193",
        "mean_anomaly": "14.33782924533856",
        "mean_motion": ".4333754639941153",
        "equinox": "J2000",
        "orbit_class": {
            "orbit_class_type": "APO",
            "orbit_class_description": "Near-Earth asteroid orbits which cross the Earth’s orbit similar to that of 1862 Apollo",
            "orbit_class_range": "a (semi-major axis) > 1.0 AU; q (perihelion) < 1.017 AU"
        }
    },
    "is_sentry_object": false
}